[
    {
        "Altitude(m)": 605470.7359480454,
        "Argument of Periapsis(deg)": 0.0,
        "Eccentricity": 0.0,
        "Inclination(deg)": 60.0,
        "Latitude(deg)": 27.988030650014892,
        "Longitude(deg)": -62.73707872558011,
        "Mean Anomaly(deg)": -212.7273,
        "RAAN(deg)": 235.0,
        "Satellite Name": "Test1 1043",
        "Satellite Number": 1043,
        "Semi-Major Axis(m)": 6980739.136638005,
        "Time(s)": 0
    },
    {
        "Altitude(m)": 605395.7745893716,
        "Argument of Periapsis(deg)": 0.00010418945913296404,
        "Eccentricity": 0.0,
        "Inclination(deg)": 60.0,
        "Latitude(deg)": 27.473721635845003,
        "Longitude(deg)": -62.38389094834386,
        "Mean Anomaly(deg)": -212.10719385453817,
        "RAAN(deg)": 234.99957995086027,
        "Satellite Name": "Test1 1043",
        "Satellite Number": 1043,
        "Semi-Major Axis(m)": 6980739.136638005,
        "Time(s)": 10
    }
]